ONEWEB-0589             
1 54655U 22166P   25021.94307431  .00000017  00000+0  10893-4 0  9995
2 54655  87.9327 345.8586 0001677  52.1631 307.9655 13.21827736104472
ONEWEB-0590             
1 54656U 22166Q   25021.89104627  .00000023  00000+0  23594-4 0  9991
2 54656  87.9312 345.8693 0001942  78.6504 281.4848 13.21824979103984
ONEWEB-0591             
1 54657U 22166R   25021.90366739  .00000058  00000+0  10935-3 0  9990
2 54657  87.9326 345.8679 0001811  76.5250 283.6086 13.21824697104014
ONEWEB-0592             
1 54658U 22166S   25021.90680427  .00000036  00000+0  56442-4 0  9994
2 54658  87.9321 345.8250 0001834  76.5865 283.5474 13.21827726103893
ONEWEB-0593             
1 54659U 22166T   25021.93046535  .00000054  00000+0  99763-4 0  9997
2 54659  87.9327 345.8534 0001739  75.2870 284.8457 13.21827621104475
ONEWEB-0594             
1 54660U 22166U   25021.87370798  .00000024  00000+0  26271-4 0  9994
2 54660  87.9327 345.8723 0001737  85.0165 275.1167 13.21825190104471
ONEWEB-0595             
1 54661U 22166V   25021.92729856 -.00000354  00000+0 -88852-3 0  9994
2 54661  87.9327 345.8434 0001916  85.4723 274.6630 13.21825355103992
ONEWEB-0596             
1 54662U 22166W   25021.90049159  .00000024  00000+0  27146-4 0  9996
2 54662  87.9327 345.8584 0001912  75.0966 285.0379 13.21824029103992
